OBJECT_NAME,OBJECT_ID,EPOCH,MEAN_MOTION,ECCENTRICITY,INCLINATION,RA_OF_ASC_NODE,ARG_OF_PERICENTER,MEAN_ANOMALY,EPHEMERIS_TYPE,CLASSIFICATION_TYPE,NORAD_CAT_ID,ELEMENT_SET_NO,REV_AT_EPOCH,BSTAR,MEAN_MOTION_DOT,MEAN_MOTION_DDOT
EYESAT A (AO-27),1993-061C,2026-05-18T03:24:52.744032,14.30933318,.0008362,98.6890,205.5646,180.7438,179.3734,0,U,22825,999,70270,.4043E-4,.62E-6,0
ITAMSAT (IO-26),1993-061D,2026-05-18T03:08:07.156032,14.31359325,.0009215,98.6838,205.4673,164.9014,195.2446,0,U,22826,999,70301,.40243E-4,.62E-6,0
RADIO ROSTO (RS15),1994-085A,2026-05-18T01:12:33.073056,11.27583608,.015511,64.8188,351.9576,9.4035,350.9737,0,U,23439,999,29250,-.18423E-3,-.49E-6,0
JAS-2 (FO-29),1996-046B,2026-05-18T03:29:05.262720,13.53272660,.0349974,98.5270,351.1278,174.2414,186.2916,0,U,24278,999,46910,.4257E-4,.8E-7,0
FORTE,1997-047A,2026-05-18T04:24:28.624896,14.27931633,.0023884,69.9529,81.7892,314.0241,45.8913,0,U,24920,999,49440,.6472E-4,.103E-5,0
TECHSAT 1B (GO-32),1998-043D,2026-05-18T05:03:54.864288,14.24421971,.0000722,99.0065,130.2154,0.9975,359.1205,0,U,25397,999,44706,.25345E-4,.12E-6,0
ISS (ZARYA),1998-067A,2026-05-18T04:45:01.329120,15.49256023,.0007513,51.6325,88.5573,70.6653,289.5148,0,U,25544,999,56710,.12105E-3,.6286E-4,0
IMAGE,2000-017A,2026-05-16T20:25:18.819264,1.68665369,.74554789,94.2039,314.9580,291.3690,8.2558,0,U,26113,999,16097,.11882681E-1,.32E-6,0
CLUSTER II-FM7 (SAMBA),2000-041A,2026-05-19T03:11:14.910144,0.44883482,.90185594,149.8437,45.8867,262.6588,0.3747,0,U,26410,999,2018,0,.6663E-4,0
CLUSTER II-FM8 (TANGO),2000-045B,2026-05-16T21:31:44.757984,0.44400393,.90227595,150.0886,46.4719,263.0807,0.4723,0,U,26464,999,2015,0,.3719E-4,0
ODIN,2001-007A,2026-05-18T02:15:24.854688,15.67002785,.0003276,97.3907,177.3071,184.1686,175.9548,0,U,26702,999,38467,.84651E-3,.90621E-3,0
OMNI-M1,2001-026A,2026-05-16T09:05:15.687456,3.92401279,.00152975,44.8421,252.5957,48.1988,311.9568,0,U,26857,999,20432,0,-.11E-6,0
PCSAT (NO-44),2001-043C,2026-05-17T21:59:13.763328,14.31943365,.00062274,67.0508,322.5666,263.6404,96.3988,0,U,26931,999,28611,.52830718E-4,.59E-6,0
PROBA-1,2001-049B,2026-05-18T03:11:29.650848,15.07372603,.0053763,97.9604,145.6184,223.1813,136.5192,0,U,26958,999,33909,.71583E-4,.1045E-4,0
SAUDISAT 1C (SO-50),2002-058C,2026-05-17T16:12:13.596768,14.82977248,.00756269,64.5520,223.3829,268.0551,91.1893,0,U,27607,999,25993,.85292761E-4,.571E-5,0
CORIOLIS,2003-001A,2026-05-18T00:54:49.249728,14.19935958,.0012949,98.7134,145.3828,302.5268,57.4657,0,U,27640,999,20994,.47147E-4,.56E-6,0
CUTE-1 (CO-55),2003-031E,2026-05-17T18:14:30.273504,14.24315356,.00082833,98.6745,146.7015,274.5188,85.5045,0,U,27844,999,18734,.94640211E-4,.175E-5,0
CUBESAT XI-IV (CO-57),2003-031J,2026-05-18T00:20:47.346432,14.23603269,.0008292,98.6777,146.6897,295.0772,64.9546,0,U,27848,999,18708,.83815E-4,.147E-5,0
MOZHAETS 4 (RS22),2003-042A,2026-05-18T04:56:11.024160,14.73407946,.0011537,98.3461,321.7193,10.7054,100.2190,0,U,27939,999,21113,.32041E-4,.154E-5,0
