EYESAT A (AO-27)        
1 22825U 93061C   26138.14227713  .00000062  00000+0  40430-4 0  9997
2 22825  98.6890 205.5646 0008362 180.7438 179.3734 14.30933318702704
ITAMSAT (IO-26)         
1 22826U 93061D   26138.13063838  .00000062  00000+0  40243-4 0  9995
2 22826  98.6838 205.4673 0009215 164.9014 195.2446 14.31359325703011
RADIO ROSTO (RS15)      
1 23439U 94085A   26138.05038279 -.00000049  00000+0 -18423-3 0  9996
2 23439  64.8188 351.9576 0155110   9.4035 350.9737 11.27583608292501
JAS-2 (FO-29)           
1 24278U 96046B   26138.14519980  .00000008  00000+0  42570-4 0  9994
2 24278  98.5270 351.1278 0349974 174.2414 186.2916 13.53272660469100
FORTE                   
1 24920U 97047A   26138.18366464  .00000103  00000+0  64720-4 0  9998
2 24920  69.9529  81.7892 0023884 314.0241  45.8913 14.27931633494404
TECHSAT 1B (GO-32)      
1 25397U 98043D   26138.21105167  .00000012  00000+0  25345-4 0  9998
2 25397  99.0065 130.2154 0000722   0.9975 359.1205 14.24421971447065
ISS (ZARYA)             
1 25544U 98067A   26138.19793205  .00006286  00000+0  12105-3 0  9999
2 25544  51.6325  88.5573 0007513  70.6653 289.5148 15.49256023567106
IMAGE                   
1 26113U 00017A   26136.85091226  .00000032  00000+0  11883-1 0  9998
2 26113  94.2039 314.9580 7455478 291.3690   8.2558  1.68665369160973
CLUSTER II-FM7 (SAMBA)  
1 26410U 00041A   26139.13281146  .00006663  00000+0  00000+0 0  9994
2 26410 149.8437  45.8867 9018559 262.6588   0.3747  0.44883482 20186
CLUSTER II-FM8 (TANGO)  
1 26464U 00045B   26136.89704581  .00003719  00000+0  00000+0 0  9999
2 26464 150.0886  46.4719 9022759 263.0807   0.4723  0.44400393 20154
ODIN                    
1 26702U 01007A   26138.09403767  .00090621  00000+0  84651-3 0  9995
2 26702  97.3907 177.3071 0003276 184.1686 175.9548 15.67002785384670
OMNI-M1                 
1 26857U 01026A   26136.37865379 -.00000011  00000+0  00000+0 0  9994
2 26857  44.8421 252.5957 0015297  48.1988 311.9568  3.92401279204321
PCSAT (NO-44)           
1 26931U 01043C   26137.91613152  .00000059  00000+0  52831-4 0  9992
2 26931  67.0508 322.5666 0006227 263.6404  96.3988 14.31943365286111
PROBA-1                 
1 26958U 01049B   26138.13298207  .00001045  00000+0  71583-4 0  9993
2 26958  97.9604 145.6184 0053763 223.1813 136.5192 15.07372603339095
SAUDISAT 1C (SO-50)     
1 27607U 02058C   26137.67515737  .00000571  00000+0  85293-4 0  9990
2 27607  64.5520 223.3829 0075626 268.0551  91.1893 14.82977248259939
CORIOLIS                
1 27640U 03001A   26138.03807002  .00000056  00000+0  47147-4 0  9990
2 27640  98.7134 145.3828 0012949 302.5268  57.4657 14.19935958209947
CUTE-1 (CO-55)          
1 27844U 03031E   26137.76007261  .00000175  00000+0  94640-4 0  9999
2 27844  98.6745 146.7015 0008283 274.5188  85.5045 14.24315356187340
CUBESAT XI-IV (CO-57)   
1 27848U 03031J   26138.01443688  .00000147  00000+0  83815-4 0  9990
2 27848  98.6777 146.6897 0008292 295.0772  64.9546 14.23603269187083
MOZHAETS 4 (RS22)       
1 27939U 03042A   26138.20568315  .00000154  00000+0  32041-4 0  9992
2 27939  98.3461 321.7193 0011537  10.7054 100.2190 14.73407946211139
